{ "_id" : { "$oid" : "5716054bee6e764c94fa7ddd" }, "address" : { "building" : "1007", "coord" : [ -73.856077, 40.848447 ], "street" : "Morris Park Ave", "zipcode" : "10462" }, "borough" : "Bronx", "cuisine" : "Bakery", "name" : "Morris Park Bake Shop" }
{ "_id" : { "$oid" : "5716054bee6e764c94fa8181" }, "address" : { "building" : "4202", "coord" : [ -73.85694079999999, 40.8936238 ], "street" : "White Plains Road", "zipcode" : "10466" }, "borough" : "Bronx", "cuisine" : "Bakery", "name" : "E & L Bakery & Coffee Shop" }
{ "_id" : { "$oid" : "5716054bee6e764c94fa8213" }, "address" : { "building" : "29", "coord" : [ -73.86119219999999, 40.8338023 ], "street" : "Hugh Grant Circle", "zipcode" : "10462" }, "borough" : "Bronx", "cuisine" : "Bakery", "name" : "Zaro'S Bread Basket" }
{ "_id" : { "$oid" : "5716054bee6e764c94fa8351" }, "address" : { "building" : "3978", "coord" : [ -73.86009279999999, 40.8879078 ], "street" : "White Plains Road", "zipcode" : "10466" }, "borough" : "Bronx", "cuisine" : "Bakery", "name" : "Champion Bakery" }
{ "_id" : { "$oid" : "5716054bee6e764c94fa8361" }, "address" : { "building" : "527", "coord" : [ -73.91824199999999, 40.80744500000001 ], "street" : "East 138 Street", "zipcode" : "10454" }, "borough" : "Bronx", "cuisine" : "Bakery", "name" : "Franco Bakery" }
{ "_id" : { "$oid" : "5716054bee6e764c94fa8366" }, "address" : { "building" : "1015", "coord" : [ -73.8891952, 40.8269787 ], "street" : "East  167 Street", "zipcode" : "10459" }, "borough" : "Bronx", "cuisine" : "Bakery", "name" : "Biarritz Bakery" }
{ "_id" : { "$oid" : "5716054bee6e764c94fa8394" }, "address" : { "building" : "831", "coord" : [ -73.90503799999999, 40.812633 ], "street" : "East 149 Street", "zipcode" : "10455" }, "borough" : "Bronx", "cuisine" : "Bakery", "name" : "Pitusa Bakery" }
{ "_id" : { "$oid" : "5716054bee6e764c94fa841e" }, "address" : { "building" : "1484", "coord" : [ -73.88066689999999, 40.8283447 ], "street" : "Westchester Avenue", "zipcode" : "10472" }, "borough" : "Bronx", "cuisine" : "Bakery", "name" : "Nacional Bakery #1" }
{ "_id" : { "$oid" : "5716054bee6e764c94fa84d0" }, "address" : { "building" : "605", "coord" : [ -73.8928162, 40.84641939999999 ], "street" : "East Tremont Avenue", "zipcode" : "10457" }, "borough" : "Bronx", "cuisine" : "Bakery", "name" : "La Bella Rosa Bakery" }
{ "_id" : { "$oid" : "5716054bee6e764c94fa853a" }, "address" : { "building" : "33083310", "coord" : [ -73.867598, 40.8603041 ], "street" : "Whiteplains Road", "zipcode" : "10467" }, "borough" : "Bronx", "cuisine" : "Bakery", "name" : "Sugar City Bakery" }
{ "_id" : { "$oid" : "5716054bee6e764c94fa85a6" }, "address" : { "building" : "1035", "coord" : [ -73.8912519, 40.8213991 ], "street" : "East  163 Street", "zipcode" : "10459" }, "borough" : "Bronx", "cuisine" : "Bakery", "name" : "Giralda Bakery" }
{ "_id" : { "$oid" : "5716054bee6e764c94fa85e3" }, "address" : { "building" : "1650", "coord" : [ -73.8308632, 40.8451777 ], "street" : "Crosby Ave", "zipcode" : "10461" }, "borough" : "Bronx", "cuisine" : "Bakery", "name" : "Pelham Bake Shop" }
{ "_id" : { "$oid" : "5716054bee6e764c94fa86c3" }, "address" : { "building" : "622", "coord" : [ -73.886871, 40.854888 ], "street" : "East 187 Street", "zipcode" : "10458" }, "borough" : "Bronx", "cuisine" : "Bakery", "name" : "Caffe Egidio" }
{ "_id" : { "$oid" : "5716054bee6e764c94fa870e" }, "address" : { "building" : "2426", "coord" : [ -73.901158, 40.8620949 ], "street" : "Jerome Avenue", "zipcode" : "10468" }, "borough" : "Bronx", "cuisine" : "Bakery", "name" : "Steve'S Bakery" }
{ "_id" : { "$oid" : "5716054bee6e764c94fa8779" }, "address" : { "building" : "580", "coord" : [ -73.888176, 40.855624 ], "street" : "East  187 Street", "zipcode" : "10458" }, "borough" : "Bronx", "cuisine" : "Bakery", "name" : "Gino'S Pastry Shop" }
{ "_id" : { "$oid" : "5716054bee6e764c94fa88e6" }, "address" : { "building" : "4315", "coord" : [ -73.8676548, 40.8992003 ], "street" : "Katonah Ave", "zipcode" : "10470" }, "borough" : "Bronx", "cuisine" : "Bakery", "name" : "Angelica'S Bakery" }
{ "_id" : { "$oid" : "5716054bee6e764c94fa8936" }, "address" : { "building" : "1298", "coord" : [ -73.8286263, 40.8381952 ], "street" : "Crosby Ave", "zipcode" : "10461" }, "borough" : "Bronx", "cuisine" : "Bakery", "name" : "Teresa'S Gourmet" }
{ "_id" : { "$oid" : "5716054bee6e764c94fa8c13" }, "address" : { "building" : "104512", "coord" : [ -73.88541699999999, 40.82766 ], "street" : "Westchester Avenue", "zipcode" : "10459" }, "borough" : "Bronx", "cuisine" : "Bakery", "name" : "La Nueva Giralda Bakery" }
{ "_id" : { "$oid" : "5716054bee6e764c94fa8c70" }, "address" : { "building" : "743", "coord" : [ -73.8658389, 40.8597684 ], "street" : "Astor Avenue", "zipcode" : "10467" }, "borough" : "Bronx", "cuisine" : "Bakery", "name" : "J.E. Bakery" }
{ "_id" : { "$oid" : "5716054bee6e764c94fa8c8b" }, "address" : { "building" : "1193", "coord" : [ -73.9197389, 40.83489170000001 ], "street" : "Walton Avenue", "zipcode" : "10452" }, "borough" : "Bronx", "cuisine" : "Bakery", "name" : "Nb. National Bakery" }
{ "_id" : { "$oid" : "5716054bee6e764c94fa8d90" }, "address" : { "building" : "2425", "coord" : [ -73.898455, 40.8609147 ], "street" : "Grand Concourse", "zipcode" : "10468" }, "borough" : "Bronx", "cuisine" : "Bakery", "name" : "Mom'S Bakery" }
{ "_id" : { "$oid" : "5716054bee6e764c94fa8e63" }, "address" : { "building" : "1057", "coord" : [ -73.85453079999999, 40.8491916 ], "street" : "Morris Park Ave", "zipcode" : "10461" }, "borough" : "Bronx", "cuisine" : "Bakery", "name" : "Enrico'S Pastry Shop & Caffe" }
{ "_id" : { "$oid" : "5716054bee6e764c94fa8ff6" }, "address" : { "building" : "1522-4", "coord" : [ -73.8789604, 40.8286012 ], "street" : "Westchester Avenue", "zipcode" : "10472" }, "borough" : "Bronx", "cuisine" : "Bakery", "name" : "National Bakery" }
{ "_id" : { "$oid" : "5716054bee6e764c94fa93f9" }, "address" : { "building" : "944", "coord" : [ -73.89651379999999, 40.8212482 ], "street" : "Intelvale Avenue", "zipcode" : "10459" }, "borough" : "Bronx", "cuisine" : "Bakery", "name" : "National Bakery" }
{ "_id" : { "$oid" : "5716054bee6e764c94fa9489" }, "address" : { "building" : "524", "coord" : [ -73.92284939999999, 40.81682259999999 ], "street" : "Morris Avenue", "zipcode" : "10451" }, "borough" : "Bronx", "cuisine" : "Bakery", "name" : "Janeydi Bakery" }
{ "_id" : { "$oid" : "5716054bee6e764c94fa9620" }, "address" : { "building" : "767", "coord" : [ -73.86468099999999, 40.865699 ], "street" : "Allerton Avenue", "zipcode" : "10467" }, "borough" : "Bronx", "cuisine" : "Bakery", "name" : "National Bakery" }
{ "_id" : { "$oid" : "5716054bee6e764c94fa977e" }, "address" : { "building" : "929", "coord" : [ -73.900834, 40.8219878 ], "street" : "Prospect Avenue", "zipcode" : "10459" }, "borough" : "Bronx", "cuisine" : "Bakery", "name" : "Amor Bakery No 2" }
{ "_id" : { "$oid" : "5716054bee6e764c94fa979a" }, "address" : { "building" : "2349", "coord" : [ -73.88854839999999, 40.8546507 ], "street" : "Arthur Ave", "zipcode" : "10458" }, "borough" : "Bronx", "cuisine" : "Bakery", "name" : "Morrone Pastry Shop & Cafe" }
{ "_id" : { "$oid" : "5716054bee6e764c94fa9912" }, "address" : { "building" : "3139", "coord" : [ -73.8344941, 40.8380223 ], "street" : "East Tremont Avenue", "zipcode" : "10461" }, "borough" : "Bronx", "cuisine" : "Bakery", "name" : "La Salle Bakery" }
{ "_id" : { "$oid" : "5716054bee6e764c94fa9c57" }, "address" : { "building" : "3418", "coord" : [ -73.84993179999999, 40.8758594 ], "street" : "Boston Road", "zipcode" : "10469" }, "borough" : "Bronx", "cuisine" : "Bakery", "name" : "Prime Time Caribbean Bakery" }
{ "_id" : { "$oid" : "5716054bee6e764c94fa9cdb" }, "address" : { "building" : "2312", "coord" : [ -73.8993571, 40.8577583 ], "street" : "Grand Concourse", "zipcode" : "10458" }, "borough" : "Bronx", "cuisine" : "Bakery", "name" : "Reposteria Nitin" }
{ "_id" : { "$oid" : "5716054cee6e764c94fa9e16" }, "address" : { "building" : "789", "coord" : [ -73.8638646, 40.8656767 ], "street" : "Allerton Avenue", "zipcode" : "10467" }, "borough" : "Bronx", "cuisine" : "Bakery", "name" : "Palombo Bakery" }
{ "_id" : { "$oid" : "5716054cee6e764c94fa9ee1" }, "address" : { "building" : "1812", "coord" : [ -73.8660629, 40.8457515 ], "street" : "White Plains Road", "zipcode" : "10462" }, "borough" : "Bronx", "cuisine" : "Bakery", "name" : "Ronald Pitusa Bakery" }
{ "_id" : { "$oid" : "5716054cee6e764c94fa9f31" }, "address" : { "building" : "1617", "coord" : [ -73.8747516, 40.829474 ], "street" : "Westchester Avenue", "zipcode" : "10472" }, "borough" : "Bronx", "cuisine" : "Bakery", "name" : "1617-A National Bakery" }
{ "_id" : { "$oid" : "5716054cee6e764c94faa0ff" }, "address" : { "building" : "1930", "coord" : [ -73.90503529999999, 40.8499908 ], "street" : "Grand Concourse", "zipcode" : "10457" }, "borough" : "Bronx", "cuisine" : "Bakery", "name" : "Don Villa Bakery" }
{ "_id" : { "$oid" : "5716054cee6e764c94faa105" }, "address" : { "building" : "2214", "coord" : [ -73.8510158, 40.8342588 ], "street" : "Westchester Avenue", "zipcode" : "10462" }, "borough" : "Bronx", "cuisine" : "Bakery", "name" : "National Bakery" }
{ "_id" : { "$oid" : "5716054cee6e764c94faa1e0" }, "address" : { "building" : "18", "coord" : [ -89.263076, 40.3106564 ], "street" : "East 200 Street", "zipcode" : "10468" }, "borough" : "Bronx", "cuisine" : "Bakery", "name" : "Mi Casa Bakery" }
{ "_id" : { "$oid" : "5716054cee6e764c94faa43b" }, "address" : { "building" : "2785", "coord" : [ -73.9198478, 40.8151872 ], "street" : "3 Avenue", "zipcode" : "10455" }, "borough" : "Bronx", "cuisine" : "Bakery", "name" : "Delicia Bakery" }
{ "_id" : { "$oid" : "5716054cee6e764c94faa4ff" }, "address" : { "building" : "726", "coord" : [ -73.9077518, 40.8158272 ], "street" : "East 152 Street", "zipcode" : "10455" }, "borough" : "Bronx", "cuisine" : "Bakery", "name" : "Pastora Bakery" }
{ "_id" : { "$oid" : "5716054cee6e764c94faa5bf" }, "address" : { "building" : "786", "coord" : [ -73.8627867, 40.8456482 ], "street" : "Morris Park Avenue", "zipcode" : "10462" }, "borough" : "Bronx", "cuisine" : "Bakery", "name" : "Conti'S Pastry Shoppe" }
{ "_id" : { "$oid" : "5716054cee6e764c94faa80b" }, "address" : { "building" : "520", "coord" : [ -73.914489, 40.814495 ], "street" : "East  149 Street", "zipcode" : "10455" }, "borough" : "Bronx", "cuisine" : "Bakery", "name" : "Tina Bakery" }
{ "_id" : { "$oid" : "5716054cee6e764c94faa920" }, "address" : { "building" : "2269", "coord" : [ -73.9042201, 40.8583402 ], "street" : "Jerome Avenue", "zipcode" : "10453" }, "borough" : "Bronx", "cuisine" : "Bakery", "name" : "Las Palmas Bakery" }
{ "_id" : { "$oid" : "5716054cee6e764c94faa9f2" }, "address" : { "building" : "1365", "coord" : [ -73.89732979999999, 40.83057429999999 ], "street" : "Prospect Avenue", "zipcode" : "10459" }, "borough" : "Bronx", "cuisine" : "Bakery", "name" : "Johnny'S Bakery" }
{ "_id" : { "$oid" : "5716054cee6e764c94faad84" }, "address" : { "building" : "264", "coord" : [ -73.91442270000002, 40.8332815 ], "street" : "East  167 Street", "zipcode" : "10456" }, "borough" : "Bronx", "cuisine" : "Bakery", "name" : "Marinell Bakery" }
{ "_id" : { "$oid" : "5716054cee6e764c94faadba" }, "address" : { "building" : "610", "coord" : [ -73.887249, 40.8551885 ], "street" : "East  187 Street", "zipcode" : "10458" }, "borough" : "Bronx", "cuisine" : "Bakery", "name" : "De Lillo Pastry Shop" }
{ "_id" : { "$oid" : "5716054cee6e764c94fab3f0" }, "address" : { "building" : "2053", "coord" : [ -73.8287771, 40.86952309999999 ], "street" : "Bartow Avenue", "zipcode" : "10475" }, "borough" : "Bronx", "cuisine" : "Bakery", "name" : "Palombo Bakery Cafe" }
{ "_id" : { "$oid" : "5716054cee6e764c94fab544" }, "address" : { "building" : "58", "coord" : [ -73.899801, 40.8678083 ], "street" : "West Kingsbridge Road", "zipcode" : "10468" }, "borough" : "Bronx", "cuisine" : "Bakery", "name" : "Mi Casa Bakery" }
{ "_id" : { "$oid" : "5716054cee6e764c94faba0d" }, "address" : { "building" : "155", "coord" : [ -73.9147942, 40.83937700000001 ], "street" : "East 170 Street", "zipcode" : "10452" }, "borough" : "Bronx", "cuisine" : "Bakery", "name" : "La Rosa Bakery" }
{ "_id" : { "$oid" : "5716054cee6e764c94fabada" }, "address" : { "building" : "262", "coord" : [ -73.9111954, 40.8615124 ], "street" : "W Fordham Rd", "zipcode" : "10468" }, "borough" : "Bronx", "cuisine" : "Bakery", "name" : "Bibbies Bakery" }
{ "_id" : { "$oid" : "5716054cee6e764c94fabc66" }, "address" : { "building" : "3492", "coord" : [ -73.8813674, 40.8823625 ], "street" : "Jerome Avenue", "zipcode" : "10467" }, "borough" : "Bronx", "cuisine" : "Bakery", "name" : "B.F. National Bakery" }
{ "_id" : { "$oid" : "5716054cee6e764c94fac00f" }, "address" : { "building" : "120", "coord" : [ -73.9136207, 40.8536768 ], "street" : "West Burnside Avenue", "zipcode" : "10453" }, "borough" : "Bronx", "cuisine" : "Bakery", "name" : "D' Postre Cafe" }
{ "_id" : { "$oid" : "5716054cee6e764c94fac138" }, "address" : { "building" : "15", "coord" : [ -73.901645, 40.863013 ], "street" : "West Fordham Road", "zipcode" : "10468" }, "borough" : "Bronx", "cuisine" : "Bakery", "name" : "Fordham Road Bakery" }
{ "_id" : { "$oid" : "5716054cee6e764c94fac2a1" }, "address" : { "building" : "2031", "coord" : [ -73.9041575, 40.8520637 ], "street" : "Grand Concourse", "zipcode" : "10453" }, "borough" : "Bronx", "cuisine" : "Bakery", "name" : "Mi Casa Bakery & Coffee Shop" }
{ "_id" : { "$oid" : "5716054cee6e764c94fac350" }, "address" : { "building" : "2704", "coord" : [ -73.84591, 40.8424059 ], "street" : "East Tremont Avenue", "zipcode" : "10461" }, "borough" : "Bronx", "cuisine" : "Bakery", "name" : "Erika'S Bakery" }
{ "_id" : { "$oid" : "5716054cee6e764c94fac7a4" }, "address" : { "building" : "766", "coord" : [ -73.8651654, 40.8544354 ], "street" : "Lydig Avenue", "zipcode" : "10462" }, "borough" : "Bronx", "cuisine" : "Bakery", "name" : "Gina'S Italian Bakery & Pastry Shop" }
{ "_id" : { "$oid" : "5716054cee6e764c94fac7a5" }, "address" : { "building" : "3109", "coord" : [ -73.87948660000001, 40.8740493 ], "street" : "Bainbridge Avenue", "zipcode" : "10467" }, "borough" : "Bronx", "cuisine" : "Bakery", "name" : "Bainbridge Bakery" }
{ "_id" : { "$oid" : "5716054cee6e764c94fac868" }, "address" : { "building" : "5219", "coord" : [ -73.909593, 40.8751262 ], "street" : "Broadway", "zipcode" : "10463" }, "borough" : "Bronx", "cuisine" : "Bakery", "name" : "Rosarina Bakery" }
{ "_id" : { "$oid" : "5716054cee6e764c94fac8c8" }, "address" : { "building" : "2125", "coord" : [ -73.85591099999999, 40.8560569 ], "street" : "Williamsbridge Road", "zipcode" : "10461" }, "borough" : "Bronx", "cuisine" : "Bakery", "name" : "Ana'S Bakery & Cafe" }
{ "_id" : { "$oid" : "5716054cee6e764c94facb99" }, "address" : { "building" : "756-8", "coord" : [ -73.8647986, 40.8713808 ], "street" : "Burke Avenue", "zipcode" : "10467" }, "borough" : "Bronx", "cuisine" : "Bakery", "name" : "Harmony Bakery" }
{ "_id" : { "$oid" : "5716054cee6e764c94faccdf" }, "address" : { "building" : "58", "coord" : [ -73.9061332, 40.8590338 ], "street" : "West  183 Street", "zipcode" : "10453" }, "borough" : "Bronx", "cuisine" : "Bakery", "name" : "Dd Bakery" }
{ "_id" : { "$oid" : "5716054cee6e764c94fad056" }, "address" : { "building" : "6A", "coord" : [ -73.9188034, 40.8381439 ], "street" : "East Clarke Place", "zipcode" : "10452" }, "borough" : "Bronx", "cuisine" : "Bakery", "name" : "Emilio Super Bakery Corp" }
{ "_id" : { "$oid" : "5716054cee6e764c94fad182" }, "address" : { "building" : "97", "coord" : [ -73.90444049999999, 40.863133 ], "street" : "West Fordham Road", "zipcode" : "10468" }, "borough" : "Bronx", "cuisine" : "Bakery", "name" : "El Nuevo Jb Bakery" }
{ "_id" : { "$oid" : "5716054cee6e764c94fad318" }, "address" : { "building" : "1166", "coord" : [ -73.850584, 40.8314908 ], "street" : "Castle Hill Avenue", "zipcode" : "10462" }, "borough" : "Bronx", "cuisine" : "Bakery", "name" : "Mr Cake Bakery & Dessert" }
{ "_id" : { "$oid" : "5716054cee6e764c94fad5f4" }, "address" : { "building" : "215", "coord" : [ -73.9159653, 40.8340622 ], "street" : "East  167 Street", "zipcode" : "10456" }, "borough" : "Bronx", "cuisine" : "Bakery", "name" : "Delicias Bakery" }
{ "_id" : { "$oid" : "5716054cee6e764c94fad66f" }, "address" : { "building" : "1579", "coord" : [ -73.87670779999999, 40.8290734 ], "street" : "Westchester Avenue", "zipcode" : "10472" }, "borough" : "Bronx", "cuisine" : "Bakery", "name" : "Jacqueline'S Bakery Restaurant" }
{ "_id" : { "$oid" : "5716054cee6e764c94fad88f" }, "address" : { "building" : "2465", "coord" : [ -73.851095, 40.84294 ], "street" : "East Tremont Avenue", "zipcode" : "10461" }, "borough" : "Bronx", "cuisine" : "Bakery", "name" : "There Should Always Be Cake" }
{ "_id" : { "$oid" : "5716054cee6e764c94fad8f0" }, "address" : { "building" : "200", "coord" : [ -73.8289779, 40.8665658 ], "street" : "Baychester Avenue", "zipcode" : "10475" }, "borough" : "Bronx", "cuisine" : "Bakery", "name" : "Cinnabon" }
{ "_id" : { "$oid" : "5716054cee6e764c94fad9fe" }, "address" : { "building" : "1365A", "coord" : [ -73.91345199999999, 40.83785 ], "street" : "Sheridan Ave", "zipcode" : "10456" }, "borough" : "Bronx", "cuisine" : "Bakery", "name" : "Mi Dulce Pasteleria" }
{ "_id" : { "$oid" : "5716054cee6e764c94fada27" }, "address" : { "building" : "1322", "coord" : [ -73.847673, 40.87097 ], "street" : "East Gun Hill Road", "zipcode" : "10469" }, "borough" : "Bronx", "cuisine" : "Bakery", "name" : "Central Caribbean Bakery" }
{ "_id" : { "$oid" : "5716054cee6e764c94fada8a" }, "address" : { "building" : "936", "coord" : [ -73.9172021, 40.8273664 ], "street" : "Morris Avenue", "zipcode" : "10456" }, "borough" : "Bronx", "cuisine" : "Bakery", "name" : "Mi Casa Bakery" }
{ "_id" : { "$oid" : "5716054cee6e764c94fadb21" }, "address" : { "building" : "2400", "coord" : [ -73.88749199999999, 40.8556246 ], "street" : "Arthur Avenue", "zipcode" : "10458" }, "borough" : "Bronx", "cuisine" : "Bakery", "name" : "Palombo Pastry Shop", "coords" : [ { "w": -73.88749199999999, "n": 40.8556246 } ] }
{ "_id" : { "$oid" : "5716054cee6e764c94fadb22" }, "address" : { "building" : "2400", "coord" : [ -73.88749199999999, 40.8556246 ], "street" : "Arthur Avenue", "zipcode" : "10458" }, "borough" : "Bronx", "cuisine" : "Bakery", "name" : "Palombo Pastry Shop", "coords" : [] }
{ "_id" : { "$oid" : "5716054cee6e764c94fadb23" }, "address" : { "building" : "2400", "coord" : [ -73.88749199999999, 40.8556246 ], "street" : "Arthur Avenue", "zipcode" : "10458" }, "borough" : "Bronx", "cuisine" : "Bakery", "name" : "Palombo Pastry Shop" }
